[{"OBJECT_NAME":"JILIN-1 GAOFEN 03D47","OBJECT_ID":"2022-167L","EPOCH":"2026-03-09T22:56:46.924224","MEAN_MOTION":15.31686941,"ECCENTRICITY":0.00089304,"INCLINATION":97.6835,"RA_OF_ASC_NODE":234.6581,"ARG_OF_PERICENTER":110.4031,"MEAN_ANOMALY":249.8169,"EPHEMERIS_TYPE":0,"CLASSIFICATION_TYPE":"U","NORAD_CAT_ID":54692,"ELEMENT_SET_NO":999,"REV_AT_EPOCH":18014,"BSTAR":0.00047294748,"MEAN_MOTION_DOT":0.00014417,"MEAN_MOTION_DDOT":0},{"OBJECT_NAME":"STARLINK-34288","OBJECT_ID":"2025-139K","EPOCH":"2026-03-09T13:13:04.660032","MEAN_MOTION":15.30189984,"ECCENTRICITY":0.0001552,"INCLINATION":53.1606,"RA_OF_ASC_NODE":127.6292,"ARG_OF_PERICENTER":69.0226,"MEAN_ANOMALY":291.0941,"EPHEMERIS_TYPE":0,"CLASSIFICATION_TYPE":"U","NORAD_CAT_ID":64673,"ELEMENT_SET_NO":999,"REV_AT_EPOCH":4026,"BSTAR":0.00091259,"MEAN_MOTION_DOT":0.00026758,"MEAN_MOTION_DDOT":0}]
